SKYSAT-A                
1 39418U 13066C   26061.95281537  .00004558  00000+0  26568-3 0  9997
2 39418  97.3968 114.7053 0020655 325.1418  34.8459 15.12291967672429
SKYSAT-B                
1 40072U 14037D   26061.80195417  .00002459  00000+0  27660-3 0  9991
2 40072  98.3716  14.8050 0004177 263.0279  97.0460 14.87691447630146
SKYSAT-C1               
1 41601U 16040C   26061.65780185  .00011035  00000+0  33393-3 0  9991
2 41601  96.9710  99.2133 0004037  67.4895 292.6776 15.34337075541520
SKYSAT-C4               
1 41771U 16058B   26061.59675854  .00018797  00000+0  39901-3 0  9990
2 41771  96.9292  88.0224 0000935  75.8539 284.2815 15.45075178528993
SKYSAT-C5               
1 41772U 16058C   26061.58584760  .00010154  00000+0  30963-3 0  9993
2 41772  97.0630 106.9569 0001925  85.5775 274.5688 15.34125336527409
SKYSAT-C2               
1 41773U 16058D   26061.62384549  .00014218  00000+0  36418-3 0  9998
2 41773  97.0285  87.8558 0005376  83.9934 276.1925 15.39471988528645
SKYSAT-C3               
1 41774U 16058E   26061.57730928  .00023380  00000+0  44922-3 0  9998
2 41774  96.9188  96.7509 0001539 101.8501 258.2923 15.47941787529590
SKYSAT-C11              
1 42987U 17068A   26061.94744251  .00031667  00000+0  52867-3 0  9996
2 42987  97.4186 206.7117 0000758  87.5004 272.6335 15.51895202466737
SKYSAT-C10              
1 42988U 17068B   26061.94150088  .00013194  00000+0  42293-3 0  9993
2 42988  97.4323 198.0229 0001163  90.7199 269.4176 15.32479422466075
SKYSAT-C9               
1 42989U 17068C   26061.88494280  .00017815  00000+0  46809-3 0  9993
2 42989  97.4248 197.9454 0009644 155.2859 204.8850 15.38618850466395
SKYSAT-C8               
1 42990U 17068D   26061.93504626  .00007739  00000+0  23358-3 0  9995
2 42990  97.4352 197.4313 0001183 113.5427 246.5940 15.34556497466005
SKYSAT-C7               
1 42991U 17068E   26061.92490975  .00015035  00000+0  45156-3 0  9994
2 42991  97.4353 198.4041 0007361 124.5948 235.5990 15.34499388466064
SKYSAT-C6               
1 42992U 17068F   26061.91191810  .00013556  00000+0  43350-3 0  9990
2 42992  97.4387 198.6948 0003537 128.8621 231.2937 15.32544883466036
SKYSAT-C12              
1 43797U 18099AR  26061.63622706  .00019032  00000+0  40076-3 0  9998
2 43797  96.9382  89.3560 0004813 156.2058 203.9415 15.45297388405389
SKYSAT-C13              
1 43802U 18099AW  26061.68062817  .00087730  00000+0  57950-3 0  9990
2 43802  96.9425 109.3063 0003174 228.7580 131.3413 15.75326311406069
FLOCK 4Q-16             
1 58271U 23174R   26061.95311666  .00029912  00000+0  64812-3 0  9998
2 58271  97.3877 147.9714 0007885 179.5973 180.5283 15.44353415129158
FLOCK 4Q-11             
1 58273U 23174T   26061.76770462  .00028300  00000+0  60611-3 0  9995
2 58273  97.3917 148.2556 0007596 177.1580 182.9713 15.44710825129134
