[{"OBJECT_NAME":"SKYSAT-A","OBJECT_ID":"2013-066C","EPOCH":"2026-03-02T22:52:03.247968","MEAN_MOTION":15.12291967,"ECCENTRICITY":0.00206557,"INCLINATION":97.3968,"RA_OF_ASC_NODE":114.7053,"ARG_OF_PERICENTER":325.1418,"MEAN_ANOMALY":34.8459,"EPHEMERIS_TYPE":0,"CLASSIFICATION_TYPE":"U","NORAD_CAT_ID":39418,"ELEMENT_SET_NO":999,"REV_AT_EPOCH":67242,"BSTAR":0.00026568147,"MEAN_MOTION_DOT":4.558e-5,"MEAN_MOTION_DDOT":0},{"OBJECT_NAME":"SKYSAT-B","OBJECT_ID":"2014-037D","EPOCH":"2026-03-02T19:14:48.840288","MEAN_MOTION":14.87691447,"ECCENTRICITY":0.00041776,"INCLINATION":98.3716,"RA_OF_ASC_NODE":14.805,"ARG_OF_PERICENTER":263.0279,"MEAN_ANOMALY":97.046,"EPHEMERIS_TYPE":0,"CLASSIFICATION_TYPE":"U","NORAD_CAT_ID":40072,"ELEMENT_SET_NO":999,"REV_AT_EPOCH":63014,"BSTAR":0.00027660176,"MEAN_MOTION_DOT":2.459e-5,"MEAN_MOTION_DDOT":0},{"OBJECT_NAME":"SKYSAT-C1","OBJECT_ID":"2016-040C","EPOCH":"2026-03-02T15:47:14.079840","MEAN_MOTION":15.34337075,"ECCENTRICITY":0.00040371,"INCLINATION":96.971,"RA_OF_ASC_NODE":99.2133,"ARG_OF_PERICENTER":67.4895,"MEAN_ANOMALY":292.6776,"EPHEMERIS_TYPE":0,"CLASSIFICATION_TYPE":"U","NORAD_CAT_ID":41601,"ELEMENT_SET_NO":999,"REV_AT_EPOCH":54152,"BSTAR":0.00033392681,"MEAN_MOTION_DOT":0.00011035,"MEAN_MOTION_DDOT":0},{"OBJECT_NAME":"SKYSAT-C4","OBJECT_ID":"2016-058B","EPOCH":"2026-03-02T14:19:19.937856","MEAN_MOTION":15.45075178,"ECCENTRICITY":9.35e-5,"INCLINATION":96.9292,"RA_OF_ASC_NODE":88.0224,"ARG_OF_PERICENTER":75.8539,"MEAN_ANOMALY":284.2815,"EPHEMERIS_TYPE":0,"CLASSIFICATION_TYPE":"U","NORAD_CAT_ID":41771,"ELEMENT_SET_NO":999,"REV_AT_EPOCH":52899,"BSTAR":0.00039901,"MEAN_MOTION_DOT":0.00018797,"MEAN_MOTION_DDOT":0},{"OBJECT_NAME":"SKYSAT-C5","OBJECT_ID":"2016-058C","EPOCH":"2026-03-02T14:03:37.232640","MEAN_MOTION":15.34125336,"ECCENTRICITY":0.0001925,"INCLINATION":97.063,"RA_OF_ASC_NODE":106.9569,"ARG_OF_PERICENTER":85.5775,"MEAN_ANOMALY":274.5688,"EPHEMERIS_TYPE":0,"CLASSIFICATION_TYPE":"U","NORAD_CAT_ID":41772,"ELEMENT_SET_NO":999,"REV_AT_EPOCH":52740,"BSTAR":0.00030963,"MEAN_MOTION_DOT":0.00010154,"MEAN_MOTION_DDOT":0},{"OBJECT_NAME":"SKYSAT-C2","OBJECT_ID":"2016-058D","EPOCH":"2026-03-02T14:58:20.250336","MEAN_MOTION":15.39471988,"ECCENTRICITY":0.0005376,"INCLINATION":97.0285,"RA_OF_ASC_NODE":87.8558,"ARG_OF_PERICENTER":83.9934,"MEAN_ANOMALY":276.1925,"EPHEMERIS_TYPE":0,"CLASSIFICATION_TYPE":"U","NORAD_CAT_ID":41773,"ELEMENT_SET_NO":999,"REV_AT_EPOCH":52864,"BSTAR":0.00036418,"MEAN_MOTION_DOT":0.00014218,"MEAN_MOTION_DDOT":0},{"OBJECT_NAME":"SKYSAT-C3","OBJECT_ID":"2016-058E","EPOCH":"2026-03-02T13:51:19.521792","MEAN_MOTION":15.47941787,"ECCENTRICITY":0.0001539,"INCLINATION":96.9188,"RA_OF_ASC_NODE":96.7509,"ARG_OF_PERICENTER":101.8501,"MEAN_ANOMALY":258.2923,"EPHEMERIS_TYPE":0,"CLASSIFICATION_TYPE":"U","NORAD_CAT_ID":41774,"ELEMENT_SET_NO":999,"REV_AT_EPOCH":52959,"BSTAR":0.00044922,"MEAN_MOTION_DOT":0.0002338,"MEAN_MOTION_DDOT":0},{"OBJECT_NAME":"SKYSAT-C11","OBJECT_ID":"2017-068A","EPOCH":"2026-03-02T22:44:19.032864","MEAN_MOTION":15.51895202,"ECCENTRICITY":7.585e-5,"INCLINATION":97.4186,"RA_OF_ASC_NODE":206.7117,"ARG_OF_PERICENTER":87.5004,"MEAN_ANOMALY":272.6335,"EPHEMERIS_TYPE":0,"CLASSIFICATION_TYPE":"U","NORAD_CAT_ID":42987,"ELEMENT_SET_NO":999,"REV_AT_EPOCH":46673,"BSTAR":0.00052867148,"MEAN_MOTION_DOT":0.00031667,"MEAN_MOTION_DDOT":0},{"OBJECT_NAME":"SKYSAT-C10","OBJECT_ID":"2017-068B","EPOCH":"2026-03-02T22:35:45.676032","MEAN_MOTION":15.32479422,"ECCENTRICITY":0.00011637,"INCLINATION":97.4323,"RA_OF_ASC_NODE":198.0229,"ARG_OF_PERICENTER":90.7199,"MEAN_ANOMALY":269.4176,"EPHEMERIS_TYPE":0,"CLASSIFICATION_TYPE":"U","NORAD_CAT_ID":42988,"ELEMENT_SET_NO":999,"REV_AT_EPOCH":46607,"BSTAR":0.00042292991,"MEAN_MOTION_DOT":0.00013194,"MEAN_MOTION_DDOT":0},{"OBJECT_NAME":"SKYSAT-C9","OBJECT_ID":"2017-068C","EPOCH":"2026-03-02T21:14:19.057920","MEAN_MOTION":15.3861885,"ECCENTRICITY":0.00096443,"INCLINATION":97.4248,"RA_OF_ASC_NODE":197.9454,"ARG_OF_PERICENTER":155.2859,"MEAN_ANOMALY":204.885,"EPHEMERIS_TYPE":0,"CLASSIFICATION_TYPE":"U","NORAD_CAT_ID":42989,"ELEMENT_SET_NO":999,"REV_AT_EPOCH":46639,"BSTAR":0.00046808722,"MEAN_MOTION_DOT":0.00017815,"MEAN_MOTION_DDOT":0},{"OBJECT_NAME":"SKYSAT-C8","OBJECT_ID":"2017-068D","EPOCH":"2026-03-02T22:26:27.996864","MEAN_MOTION":15.34556497,"ECCENTRICITY":0.00011837,"INCLINATION":97.4352,"RA_OF_ASC_NODE":197.4313,"ARG_OF_PERICENTER":113.5427,"MEAN_ANOMALY":246.594,"EPHEMERIS_TYPE":0,"CLASSIFICATION_TYPE":"U","NORAD_CAT_ID":42990,"ELEMENT_SET_NO":999,"REV_AT_EPOCH":46600,"BSTAR":0.00023358022,"MEAN_MOTION_DOT":7.739e-5,"MEAN_MOTION_DDOT":0},{"OBJECT_NAME":"SKYSAT-C7","OBJECT_ID":"2017-068E","EPOCH":"2026-03-02T22:11:52.202400","MEAN_MOTION":15.34499388,"ECCENTRICITY":0.00073613,"INCLINATION":97.4353,"RA_OF_ASC_NODE":198.4041,"ARG_OF_PERICENTER":124.5948,"MEAN_ANOMALY":235.599,"EPHEMERIS_TYPE":0,"CLASSIFICATION_TYPE":"U","NORAD_CAT_ID":42991,"ELEMENT_SET_NO":999,"REV_AT_EPOCH":46606,"BSTAR":0.00045156041,"MEAN_MOTION_DOT":0.00015035,"MEAN_MOTION_DDOT":0},{"OBJECT_NAME":"SKYSAT-C6","OBJECT_ID":"2017-068F","EPOCH":"2026-03-02T21:53:09.723840","MEAN_MOTION":15.32544883,"ECCENTRICITY":0.00035376,"INCLINATION":97.4387,"RA_OF_ASC_NODE":198.6948,"ARG_OF_PERICENTER":128.8621,"MEAN_ANOMALY":231.2937,"EPHEMERIS_TYPE":0,"CLASSIFICATION_TYPE":"U","NORAD_CAT_ID":42992,"ELEMENT_SET_NO":999,"REV_AT_EPOCH":46603,"BSTAR":0.00043349727,"MEAN_MOTION_DOT":0.00013556,"MEAN_MOTION_DDOT":0},{"OBJECT_NAME":"SKYSAT-C12","OBJECT_ID":"2018-099AR","EPOCH":"2026-03-02T15:16:10.017984","MEAN_MOTION":15.45297388,"ECCENTRICITY":0.0004813,"INCLINATION":96.9382,"RA_OF_ASC_NODE":89.356,"ARG_OF_PERICENTER":156.2058,"MEAN_ANOMALY":203.9415,"EPHEMERIS_TYPE":0,"CLASSIFICATION_TYPE":"U","NORAD_CAT_ID":43797,"ELEMENT_SET_NO":999,"REV_AT_EPOCH":40538,"BSTAR":0.00040076,"MEAN_MOTION_DOT":0.00019032,"MEAN_MOTION_DDOT":0},{"OBJECT_NAME":"SKYSAT-C13","OBJECT_ID":"2018-099AW","EPOCH":"2026-03-02T16:20:06.273888","MEAN_MOTION":15.75326311,"ECCENTRICITY":0.00031747,"INCLINATION":96.9425,"RA_OF_ASC_NODE":109.3063,"ARG_OF_PERICENTER":228.758,"MEAN_ANOMALY":131.3413,"EPHEMERIS_TYPE":0,"CLASSIFICATION_TYPE":"U","NORAD_CAT_ID":43802,"ELEMENT_SET_NO":999,"REV_AT_EPOCH":40606,"BSTAR":0.00057949792,"MEAN_MOTION_DOT":0.0008773,"MEAN_MOTION_DDOT":0},{"OBJECT_NAME":"FLOCK 4Q-16","OBJECT_ID":"2023-174R","EPOCH":"2026-03-02T22:52:29.279424","MEAN_MOTION":15.44353415,"ECCENTRICITY":0.00078854,"INCLINATION":97.3877,"RA_OF_ASC_NODE":147.9714,"ARG_OF_PERICENTER":179.5973,"MEAN_ANOMALY":180.5283,"EPHEMERIS_TYPE":0,"CLASSIFICATION_TYPE":"U","NORAD_CAT_ID":58271,"ELEMENT_SET_NO":999,"REV_AT_EPOCH":12915,"BSTAR":0.0006481225,"MEAN_MOTION_DOT":0.00029912,"MEAN_MOTION_DDOT":0},{"OBJECT_NAME":"FLOCK 4Q-11","OBJECT_ID":"2023-174T","EPOCH":"2026-03-02T18:25:29.679168","MEAN_MOTION":15.44710825,"ECCENTRICITY":0.00075966,"INCLINATION":97.3917,"RA_OF_ASC_NODE":148.2556,"ARG_OF_PERICENTER":177.158,"MEAN_ANOMALY":182.9713,"EPHEMERIS_TYPE":0,"CLASSIFICATION_TYPE":"U","NORAD_CAT_ID":58273,"ELEMENT_SET_NO":999,"REV_AT_EPOCH":12913,"BSTAR":0.00060611013,"MEAN_MOTION_DOT":0.000283,"MEAN_MOTION_DDOT":0}]
